NORAD_CAT_ID,OBJECT_NAME,OBJECT_TYPE,EPOCH,MEAN_MOTION,ECCENTRICITY,INCLINATION,RA_OF_ASC_NODE,ARG_OF_PERICENTER,MEAN_ANOMALY,BSTAR,MEAN_MOTION_DOT,MEAN_MOTION_DDOT,TLE_LINE0,TLE_LINE1,TLE_LINE2,SEMIMAJOR_AXIS,PERIOD,APOGEE,PERIGEE,DECAYED
56496.0,STARLINK-5526,PAYLOAD,2023-08-29 06:16:09,15.69920903,0.0003652,69.9962,294.5016,273.6282,86.4496,4.3991e-06,3.16e-06,0.0,0 STARLINK-5526,1 56496U 23064BA  23241.26122583  .00000316  00000-0  43991-5 0  9997,2 56496  69.9962 294.5016 0003652 273.6282  86.4496 15.69920903 17724,6737.26,91.724,361.586,356.665,0.0
56496.0,STARLINK-5526,PAYLOAD,2023-08-29 12:23:10,15.6992227,0.0003644,69.9962,293.785,273.6995,86.3784,5.5134e-06,4.5e-06,0.0,0 STARLINK-5526,1 56496U 23064BA  23241.51609195  .00000450  00000-0  55134-5 0  9995,2 56496  69.9962 293.7850 0003644 273.6995  86.3784 15.69922270 17417,6737.256,91.724,361.576,356.666,0.0
56496.0,STARLINK-5526,PAYLOAD,2023-08-30 06:44:11,15.69922497,0.000317,69.9969,291.6347,254.8699,105.2146,6.2905e-06,5.44e-06,0.0,0 STARLINK-5526,1 56496U 23064BA  23242.28068911  .00000544  00000-0  62905-5 0  9993,2 56496  69.9969 291.6347 0003170 254.8699 105.2146 15.69922497 17883,6737.256,91.724,361.256,356.985,0.0
56496.0,STARLINK-5526,PAYLOAD,2023-08-30 15:55:27,15.69326702,0.000235,69.9965,290.5619,225.8671,134.2331,-0.00065515,-0.00076358,0.0,0 STARLINK-5526,1 56496U 23064BA  23242.66351116 -.00076358  00000-0 -65515-3 0  9993,2 56496  69.9965 290.5619 0002350 225.8671 134.2331 15.69326702 17948,6738.961,91.759,362.409,359.242,0.0
56496.0,STARLINK-5526,PAYLOAD,2023-08-31 10:14:48,15.70613074,0.0005922,69.9986,288.4114,230.533,129.5343,0.0007394,0.00092337,0.0,0 STARLINK-5526,1 56496U 23064BA  23243.42694960  .00092337  00000-0  73940-3 0  9999,2 56496  69.9986 288.4114 0005922 230.5330 129.5343 15.70613074 18067,6735.281,91.684,361.134,353.157,0.0
56496.0,STARLINK-5526,PAYLOAD,2023-08-31 20:00:01,15.69931483,0.0003539,69.9997,287.2701,271.6949,220.886,-0.00023374,-0.00028233,0.0,0 STARLINK-5526,1 56496U 23064BA  23243.83334491 -.00028233  00000-0 -23374-3 0  9996,2 56496  69.9997 287.2701 0003539 271.6949 220.8860 15.69931483 18134,6737.23,91.724,361.479,356.711,0.0
56496.0,STARLINK-5526,PAYLOAD,2023-08-31 22:00:01,15.69904458,0.000354,70.0,287.0357,269.6585,333.8299,0.00021731,0.00025977,0.0,0 STARLINK-5526,1 56496U 23064BA  23243.91668981  .00025977  00000-0  21731-3 0  9994,2 56496  70.0000 287.0357 0003540 269.6585 333.8299 15.69904458  6064,6737.307,91.725,361.557,356.787,0.0
56496.0,STARLINK-5526,PAYLOAD,2023-09-01 00:01:29,15.69928299,0.0003331,69.9981,286.7992,265.2244,94.8571,2.1769e-06,4.9e-07,0.0,0 STARLINK-5526,1 56496U 23064BA  23244.00104104  .00000049  00000-0  21769-5 0  9993,2 56496  69.9981 286.7992 0003331 265.2244  94.8571 15.69928299 18151,6737.239,91.724,361.348,356.86,0.0
56496.0,STARLINK-5526,PAYLOAD,2023-09-01 09:12:00,15.69924005,0.0003164,69.9984,285.723,265.7462,94.3372,3.2446e-06,1.77e-06,0.0,0 STARLINK-5526,1 56496U 23064BA  23244.38334388  .00000177  00000-0  32446-5 0  9999,2 56496  69.9984 285.7230 0003164 265.7462  94.3372 15.69924005 17861,6737.251,91.724,361.248,356.985,0.0
56496.0,STARLINK-5526,PAYLOAD,2023-09-01 19:54:17,15.69915615,0.0002602,69.9965,284.4707,267.6903,92.3994,-2.0646e-08,-2.15e-06,0.0,0 STARLINK-5526,1 56496U 23064BA  23244.82936616 -.00000215  00000-0 -20646-7 0  9996,2 56496  69.9965 284.4707 0002602 267.6903  92.3994 15.69915615 18284,6737.275,91.725,360.893,357.387,0.0
56496.0,STARLINK-5526,PAYLOAD,2023-09-02 02:01:16,15.6992676,0.0004139,69.9981,283.7534,264.3497,95.7227,-1.7231e-06,-4.21e-06,0.0,0 STARLINK-5526,1 56496U 23064BA  23245.08422296 -.00000421  00000-0 -17231-5 0  9992,2 56496  69.9981 283.7534 0004139 264.3497  95.7227 15.69926760 18325,6737.244,91.724,361.897,356.32,0.0
56496.0,STARLINK-5526,PAYLOAD,2023-09-02 12:43:34,15.69913761,0.0002769,69.9996,282.499,267.3989,92.6889,-5.5611e-06,-8.81e-06,0.0,0 STARLINK-5526,1 56496U 23064BA  23245.53025615 -.00000881  00000-0 -55611-5 0  9990,2 56496  69.9996 282.4990 0002769 267.3989  92.6889 15.69913761 18045,6737.281,91.725,361.011,357.28,0.0
56496.0,STARLINK-5526,PAYLOAD,2023-09-03 02:29:18,15.69938491,0.0003141,69.9995,280.8872,271.7215,88.3621,2.0374e-05,2.239e-05,0.0,0 STARLINK-5526,1 56496U 23064BA  23246.10368257  .00002239  00000-0  20374-4 0  9990,2 56496  69.9995 280.8872 0003141 271.7215  88.3621 15.69938491 18482,6737.21,91.723,361.191,356.959,0.0
56496.0,STARLINK-5526,PAYLOAD,2023-09-03 08:36:21,15.69907764,0.000287,69.9994,280.1702,273.2473,86.8394,-1.4536e-05,-1.958e-05,0.0,0 STARLINK-5526,1 56496U 23064BA  23246.35857651 -.00001958  00000-0 -14536-4 0  9990,2 56496  69.9994 280.1702 0002870 273.2473  86.8394 15.69907764 18521,6737.298,91.725,361.096,357.229,0.0
56496.0,STARLINK-5526,PAYLOAD,2023-09-03 14:43:20,15.69917712,0.0003271,69.9988,279.4534,273.2265,86.8557,-1.7197e-06,-4.19e-06,0.0,0 STARLINK-5526,1 56496U 23064BA  23246.61343529 -.00000419  00000-0 -17197-5 0  9991,2 56496  69.9988 279.4534 0003271 273.2265  86.8557 15.69917712 18562,6737.269,91.725,361.338,356.931,0.0
56496.0,STARLINK-5526,PAYLOAD,2023-09-04 12:07:52,15.69920673,0.000348,69.998,276.9447,272.2033,87.8764,9.4828e-06,9.27e-06,0.0,0 STARLINK-5526,1 56496U 23064BA  23247.50546648  .00000927  00000-0  94828-5 0  9995,2 56496  69.9980 276.9447 0003480 272.2033  87.8764 15.69920673 18351,6737.261,91.724,361.471,356.781,0.0
56496.0,STARLINK-5526,PAYLOAD,2023-09-04 19:46:37,15.69930324,0.000322,69.9986,276.0494,273.7269,86.3559,-8.7636e-06,-1.267e-05,0.0,0 STARLINK-5526,1 56496U 23064BA  23247.82404893 -.00001267  00000-0 -87636-5 0  9994,2 56496  69.9986 276.0494 0003220 273.7269  86.3559 15.69930324 18753,6737.233,91.724,361.268,356.929,0.0
56496.0,STARLINK-5526,PAYLOAD,2023-09-05 01:53:38,15.69924461,0.000337,69.9982,275.3332,273.6179,86.4632,6.05e-06,5.15e-06,0.0,0 STARLINK-5526,1 56496U 23064BA  23248.07891347  .00000515  00000-0  60500-5 0  9990,2 56496  69.9982 275.3332 0003370 273.6179  86.4632 15.69924461 18441,6737.25,91.724,361.386,356.845,0.0
56496.0,STARLINK-5526,PAYLOAD,2023-09-05 18:42:55,15.69889702,0.0003358,69.9979,273.3625,275.6315,84.4498,6.4069e-05,7.487e-05,0.0,0 STARLINK-5526,1 56496U 23064BA  23248.77981012  .00007487  00000-0  64069-4 0  9994,2 56496  69.9979 273.3625 0003358 275.6315  84.4498 15.69889702 18907,6737.35,91.726,361.477,356.952,0.0
56496.0,STARLINK-5526,PAYLOAD,2023-09-05 23:18:09,15.69927656,0.0003551,69.9976,272.8249,272.5808,87.4981,1.257e-05,1.299e-05,0.0,0 STARLINK-5526,1 56496U 23064BA  23248.97094571  .00001299  00000-0  12570-4 0  9996,2 56496  69.9976 272.8249 0003551 272.5808  87.4981 15.69927656 18932,6737.241,91.724,361.498,356.714,0.0
56496.0,STARLINK-5526,PAYLOAD,2023-09-06 19:10:56,15.69923355,0.0003765,69.9968,270.4968,268.9159,91.1606,1.3895e-06,-4.6e-07,0.0,0 STARLINK-5526,1 56496U 23064BA  23249.79926763 -.00000046  00000-0  13895-5 0  9996,2 56496  69.9968 270.4968 0003765 268.9159  91.1606 15.69923355 18714,6737.253,91.724,361.655,356.582,0.0
56496.0,STARLINK-5526,PAYLOAD,2023-09-07 01:17:57,15.69919856,0.0003703,69.9969,269.781,271.6787,88.3984,-4.754e-06,-7.85e-06,0.0,0 STARLINK-5526,1 56496U 23064BA  23250.05413853 -.00000785  00000-0 -47540-5 0  9993,2 56496  69.9969 269.7810 0003703 271.6787  88.3984 15.69919856 19104,6737.263,91.724,361.623,356.633,0.0
56496.0,STARLINK-5526,PAYLOAD,2023-09-07 08:56:43,15.69920831,0.0003452,69.9981,268.8835,273.0754,87.0046,1.5203e-06,-3e-07,0.0,0 STARLINK-5526,1 56496U 23064BA  23250.37272091 -.00000030  00000-0  15203-5 0  9998,2 56496  69.9981 268.8835 0003452 273.0754  87.0046 15.69920831 18802,6737.261,91.724,361.451,356.8,0.0
56496.0,STARLINK-5526,PAYLOAD,2023-09-08 00:14:13,15.69930002,0.0003436,69.9982,267.0927,273.2545,86.8257,4.6948e-07,-1.56e-06,0.0,0 STARLINK-5526,1 56496U 23064BA  23251.00988197 -.00000156  00000-0  46948-6 0  9990,2 56496  69.9982 267.0927 0003436 273.2545  86.8257 15.69930002 19250,6737.234,91.724,361.414,356.784,0.0
56496.0,STARLINK-5526,PAYLOAD,2023-09-08 09:24:45,15.69912485,0.0002316,70.0003,266.0173,252.8747,107.2195,4.9979e-07,-1.52e-06,0.0,0 STARLINK-5526,1 56496U 23064BA  23251.39219484 -.00000152  00000-0  49979-6 0  9991,2 56496  70.0003 266.0173 0002316 252.8747 107.2195 15.69912485 19313,6737.284,91.725,360.71,357.589,0.0
56496.0,STARLINK-5526,PAYLOAD,2023-09-08 12:28:15,15.69935759,0.0002631,70.0003,265.6593,266.1873,93.9022,-2.5861e-05,-3.322e-05,0.0,0 STARLINK-5526,1 56496U 23064BA  23251.51962605 -.00003322  00000-0 -25861-4 0  9990,2 56496  70.0003 265.6593 0002631 266.1873  93.9022 15.69935759 18983,6737.218,91.723,360.855,357.31,0.0
56496.0,STARLINK-5526,PAYLOAD,2023-09-08 18:35:15,15.69933985,0.0003017,69.9997,264.9434,271.8505,88.2345,-1.4003e-05,-1.896e-05,0.0,0 STARLINK-5526,1 56496U 23064BA  23251.77448800 -.00001896  00000-0 -14003-4 0  9994,2 56496  69.9997 264.9434 0003017 271.8505  88.2345 15.69933985 19370,6737.223,91.724,361.12,357.055,0.0
56496.0,STARLINK-5526,PAYLOAD,2023-09-09 09:52:46,15.69923241,0.0002924,69.9991,263.1526,259.6627,100.4239,8.4877e-06,8.08e-06,0.0,0 STARLINK-5526,1 56496U 23064BA  23252.41165397  .00000808  00000-0  84877-5 0  9990,2 56496  69.9991 263.1526 0002924 259.6627 100.4239 15.69923241 19128,6737.254,91.724,361.089,357.149,0.0
56496.0,STARLINK-5526,PAYLOAD,2023-09-10 01:10:17,15.69922791,0.0002879,70.0001,261.3597,244.2378,115.8521,1.9022e-05,2.075e-05,0.0,0 STARLINK-5526,1 56496U 23064BA  23253.04881687  .00002075  00000-0  19022-4 0  9994,2 56496  70.0001 261.3597 0002879 244.2378 115.8521 15.69922791 19575,6737.255,91.724,361.06,357.18,0.0
56496.0,STARLINK-5526,PAYLOAD,2023-09-10 10:20:50,15.69905334,0.0002732,70.0,260.2855,256.9265,103.1626,-2.171e-06,-4.73e-06,0.0,0 STARLINK-5526,1 56496U 23064BA  23253.43113570 -.00000473  00000-0 -21710-5 0  9996,2 56496  70.0000 260.2855 0002732 256.9265 103.1626 15.69905334 19639,6737.305,91.725,361.01,357.329,0.0
